#aV2013  3 29  0  0  0.00000000     288 DD+AD WGS84 FIT  NGA
## 1733 432000.00000000   300.00000000 56380 0.0000000000000
+   30     1  2  3  4  5  6  7  8  9 10 11 12 13 14 15 16 17
+         18 19 20 21 22 23 24 25 26 28 29 31 32  0  0  0  0
+          0  0  0  0  0  0  0  0  0  0  0  0  0  0  0  0  0
+          0  0  0  0  0  0  0  0  0  0  0  0  0  0  0  0  0
+          0  0  0  0  0  0  0  0  0  0  0  0  0  0  0  0  0
++         2  2  2  2  2  2  2  2  2  2  2  2  2  2  2  2  2
++         2  2  2  2  2  2  2  2  2  2  2  2  2  2  2  0  0
++         0  0  0  0  0  0  0  0  0  0  0  0  0  0  0  0  0
++         0  0  0  0  0  0  0  0  0  0  0  0  0  0  0  0  0
++         0  0  0  0  0  0  0  0  0  0  0  0  0  0  0  0  0
%c cc cc ccc ccc cccc cccc cccc cccc ccccc ccccc ccccc ccccc
%c cc cc ccc ccc cccc cccc cccc cccc ccccc ccccc ccccc ccccc
%f  0.0000000  0.000000000  0.00000000000  0.000000000000000
%f  0.0000000  0.000000000  0.00000000000  0.000000000000000
%i    0    0    0    0      0      0      0      0         0
%i    0    0    0    0      0      0      0      0         0
/*      NGA, ST. LOUIS,MO.                                  
/*   EPHEMERIS COMPUTED FROM  1 DAYS OF DATA
/*   EPOCHA SMOOTHER  
/* CCCCCCCCCCCCCCCCCCCCCCCCCCCCCCCCCCCCCCCCCCCCCCCCCCCCCCCCC
*  2013  3 29  4 15  0.00000000                                                 
P  1  13524.342622 -12991.124404  18760.959400     11.366083                    
V  1    746.655566  23921.263927  16086.737447      0.032328                    
P  2 -13693.212866 -12677.002042 -18887.388297    424.573088                    
V  2   1666.138174 -24286.481576  14427.430973      0.018985                    
P  3  25015.740055   8670.689152   2795.776045    186.976514                    
V  3   2400.159369   4868.997625 -30729.096597      0.049839                    
P  4  -7907.276060 -22533.475698 -11602.239798    174.801946                    
V  4   3502.242492 -14372.232795  26440.592726      0.108619                    
P  5 -21451.764185  -1199.883010 -15734.210008   -389.662765                    
V  5  16508.188864 -11308.106111 -21546.086646     -0.014312                    
P  6  23092.684343  13440.713581  -1321.961084    295.959649                    
V  6  -3055.051781   1949.425866 -31000.339195     -0.153394                    
P  7   6349.999719 -24479.193610  -7572.675376    196.526396                    
V  7   1955.651719   9840.994036 -30290.024758      0.043003                    
P  8   1475.293668 -25992.338575   3346.788433      5.357060                    
V  8   2640.028483  -3844.811407 -32595.723223      0.002726                    
P  9 -12021.405026 -13846.635193  18632.290757    230.188085                    
V  9   1903.898792 -24757.679807 -16742.758132      0.026443                    
P 10  -7221.533020 -13953.084041 -21702.580027    -74.918430                    
V 10  24031.854822 -12182.092285    247.870497     -0.012516                    
P 11  15514.350258  -5820.851217  20312.671086   -367.017690                    
V 11   7471.128877  26089.952280   2012.508161     -0.037567                    
P 12 -23949.905355  11155.791174   1089.787599    125.413649                    
V 12    255.197799  -2668.203280  32352.574932      0.020552                    
P 13   8587.293792 -12086.241222 -22180.226662    133.694460                    
V 13  22102.574594  16782.084570   -705.205334     -0.035122                    
P 14  10705.803459  19778.144742  14437.122304    221.050891                    
V 14 -15503.553373  -9126.021759  24186.409577      0.000604                    
P 15 -22235.158074   -543.687906  14677.130504   -113.230166                    
V 15 -14938.012757 -11387.398560 -22750.998064     -0.014081                    
P 16  20788.154023   2296.136303 -16583.981269   -252.616316                    
V 16 -18317.196025  10026.785346 -21258.485744      0.000115                    
P 17 -11893.923143 -19583.780940  13847.667695     35.504008                    
V 17  15250.789699   8011.548765  24584.946051     -0.038887                    
P 18  -8373.814796  18867.549886  16916.936171    246.185325                    
V 18 -19655.548983   7744.353222 -19161.496472      0.019048                    
P 19  22666.412868   5814.887686  12870.650113   -360.309616                    
V 19  11850.508343  11388.303621 -25437.856139     -0.031503                    
P 20  22169.157360 -14520.843824  -1208.802700     90.350320                    
V 20   3159.879342   2622.277917  31022.966369      0.017815                    
P 21  -3057.155239  25840.236866  -3041.143967   -288.780584                    
V 21  -4074.015533  -4734.009382 -31124.704235     -0.022126                    
P 22   3318.303598  16138.882129  21002.830458    162.638351                    
V 22 -23645.255566  11765.865429  -5493.821367      0.011077                    
P 23  16773.594622  -5890.388313 -19788.992527    100.457693                    
V 23  20680.085961  14372.044083  12826.551876     -0.036792                    
P 24 -14439.112053   9177.904170  20297.432948     -3.520052                    
V 24   -475.388166 -25824.127068  11371.966678     -0.006562                    
P 25 -17962.061877  17120.568444  -9373.236998     82.168887                    
V 25 -11499.813677   3691.297705  28998.875741      0.035099                    
P 26 -22606.209789 -13400.292355   4314.240526    -48.469383                    
V 26  -3777.032378  -5333.995727 -31318.177374      0.148137                    
P 28   1578.678191 -16454.070625  21331.756320    245.104669                    
V 28  23570.400567 -10344.487733 -10176.681348      0.034257                    
P 29  -8085.348223  12753.432455 -21794.289701    421.282752                    
V 29 -22937.305949 -15695.877587   -629.794398      0.036414                    
P 31   8056.954250  21009.256911 -13707.731150    308.450509                    
V 31  -2906.615958  17644.159236  25288.628934      0.015080                    
P 32  24896.687416  -6071.924858   5991.351138   -546.608507                    
V 32  -5565.550444   6165.050863  30590.752974     -0.026745                    
EOF
